satname,norad_id,inclination_deg,eccentricity,mean_motion_rev_per_day,perigee_km,apogee_km,l1,l2
STARLINK-1212,45223,53.0554,0.0001371,15.06393579,546.281769463033,548.1807054337405,1 45223U 20012AX  25259.78583268  .00000173  00000+0  30489-4 0  9999,2 45223  53.0554  67.9574 0001371  89.4827 270.6320 15.06393579309187
STARLINK-1215,45225,53.0549,8.42e-05,15.06397073,546.6374136823142,547.8036438901627,1 45225U 20012AZ  25259.74151663  .00000018  00000+0  20074-4 0  9994,2 45225  53.0549  67.5007 0000842  97.6352 262.4732 15.06397073309130
STARLINK-1217,45226,53.0458,0.0002279,15.85809375,312.5215542395372,315.57185157132153,1 45226U 20012BA  25260.25009259  .00295507  00000+0  11489-2 0  9993,2 45226  53.0458  18.4826 0002279 188.2812 220.3091 15.85809375  5996
STARLINK-1221,45227,53.0698,0.0004025,15.34928153,458.3811017860635,463.8867148672671,1 45227U 20012BB  25259.61337112  .00013608  00000+0  40626-3 0  9990,2 45227  53.0698  10.1363 0004025 166.3049 193.8062 15.34928153309919
STARLINK-1222,45228,53.0556,0.0001341,15.06391039,546.3103293242193,548.1677151733857,1 45228U 20012BC  25259.77468996  .00000422  00000+0  47208-4 0  9997,2 45228  53.0556  67.3516 0001341  91.1432 268.9710 15.06391039309073
STARLINK-1226,45229,53.055,0.0001744,15.06393967,546.0222642628569,548.4378322892953,1 45229U 20012BD  25259.73783566  .00000717  00000+0  67054-4 0  9995,2 45229  53.0550  67.5169 0001744  95.3798 264.7390 15.06393967309072
STARLINK-1227,45230,53.055,0.0001315,15.06394391,546.318063172811,548.1394343647362,1 45230U 20012BE  25259.73414401  .00000862  00000+0  76767-4 0  9998,2 45230  53.0550  67.5330 0001315  93.3635 266.7504 15.06394391309190
STARLINK-1238,45233,53.0377,6.11e-05,15.94680792,288.7965989258473,289.61134799280444,1 45233U 20012BH  25260.25009259  .00428056  84016-4  11023-2 0  9996,2 45233  53.0377  34.8114 0000611 342.4988 162.6676 15.94680792  5742
STARLINK-1246,45235,53.0553,0.000151,15.06389793,546.1971087438342,548.2885734558458,1 45235U 20012BK  25259.88159135 -.00000907  00000+0 -42035-4 0  9992,2 45235  53.0553 106.8745 0001510  99.7738 260.3422 15.06389793308666
STARLINK-1247,45236,53.0416,4.27e-05,15.93496192,292.22304770109804,292.7927207742114,1 45236U 20012BL  25260.25009259  .00382591  68010-4  10501-2 0  9998,2 45236  53.0416  14.7514 0000427 274.1077 238.1098 15.93496192  6000
STARLINK-1270,45237,53.0545,0.0001252,15.06396692,546.3546415915898,548.0887514091937,1 45237U 20012BM  25259.75257421 -.00000174  00000+0  72253-5 0  9998,2 45237  53.0545  67.4515 0001252  90.3466 269.7666 15.06396692309181
STARLINK-1279,45360,53.0549,0.0001528,15.06389278,546.1862212380383,548.3026177998436,1 45360U 20019A   25260.24188933 -.00002500  00000+0 -14905-3 0  9993,2 45360  53.0549 195.2542 0001528  93.3470 266.7694 15.06389278303999
STARLINK-1301,45361,53.0563,0.0001511,15.06386712,546.2058577230082,548.2987103646465,1 45361U 20019B   25260.22990984 -.00000815  00000+0 -35820-4 0  9996,2 45361  53.0563 205.3097 0001511  81.9916 278.1245 15.06386712303869
STARLINK-1306,45362,53.0515,0.0008754,15.55068687,396.0176813259759,407.88826284910556,1 45362U 20019C   25260.24405162  .00126852  00000+0  18289-2 0  9994,2 45362  53.0515 210.0675 0008754  65.7817 294.4107 15.55068687303790
STARLINK-1262,45366,53.0531,0.0001848,15.06397675,545.9388780072268,548.4984894679355,1 45366U 20019G   25259.99585818  .00000931  00000+0  81388-4 0  9996,2 45366  53.0531 226.3597 0001848  71.1717 288.9472 15.06397675303557
STARLINK-1273,45367,53.0526,8.31e-05,15.06404746,546.6215169136049,547.7725074264263,1 45367U 20019H   25259.61988625 -.00000792  00000+0 -34308-4 0  9996,2 45367  53.0526 228.0503 0000831  90.9017 269.2068 15.06404746303495
STARLINK-1276,45368,53.0511,0.0001556,15.06380629,546.193334425966,548.3485213731283,1 45368U 20019J   25260.05482279  .00000832  00000+0  74756-4 0  9995,2 45368  53.0511 226.0944 0001556  94.6772 265.4394 15.06380629303562
STARLINK-1277,45369,53.0528,0.0001547,15.06401517,546.1355578530138,548.2782592583198,1 45369U 20019K   25259.64943965  .00000712  00000+0  66670-4 0  9996,2 45369  53.0528 228.5452 0001547  86.1345 273.9821 15.06401517303495
STARLINK-1281,45370,53.0528,0.0001467,15.06414651,546.1507130511363,548.1825971435419,1 45370U 20019L   25259.31394018  .00001757  00000+0  13680-3 0  9993,2 45370  53.0528 229.4232 0001467  84.9523 275.1634 15.06414651303453
STARLINK-1300,45374,53.0536,0.0001429,15.0638196,546.2772082818719,548.2564887017706,1 45374U 20019Q   25259.99953237 -.00000064  00000+0  14637-4 0  9990,2 45374  53.0536 226.3416 0001429  94.7942 265.3210 15.06381960303556
STARLINK-1302,45375,53.0542,0.0001284,15.06401664,546.3172439226219,548.0956721226421,1 45375U 20019R   25259.21810736  .00000518  00000+0  53684-4 0  9990,2 45375  53.0542 229.8540 0001284  76.1907 283.9225 15.06401664303437
STARLINK-1304,45376,53.0525,8.91e-05,15.06394667,546.6108528505611,547.8449528762512,1 45376U 20019S   25259.63462042 -.00000309  00000+0 -18995-5 0  9997,2 45376  53.0525 227.9848 0000891  97.1600 262.9490 15.06394667303496
STARLINK-1305,45377,53.053,0.00016,15.06403533,546.0926757865136,548.3087838600568,1 45377U 20019T   25259.32869772  .00004051  00000+0  29065-3 0  9999,2 45377  53.0530 229.3542 0001600  85.5473 274.5699 15.06403533303457
STARLINK-1319,45379,53.0515,0.0001509,15.06396041,546.1786548012687,548.2687286580322,1 45379U 20019V   25260.05113277 -.00000371  00000+0 -60161-5 0  9992,2 45379  53.0515 226.1128 0001509  99.4171 260.6988 15.06396041303568
STARLINK-1258,45381,53.0432,0.000572,15.982149,275.5633270288017,283.1795166633947,1 45381U 20019X   25260.25009259  .00383100  71955-4  81200-3 0  9990,2 45381  53.0432 152.6054 0005720 134.5308  31.8332 15.98214900  6017
STARLINK-1266,45383,53.0538,0.0001692,15.06392027,546.0642210321248,548.4077672533431,1 45383U 20019Z   25260.25203262  .00000691  00000+0  65327-4 0  9994,2 45383  53.0538 205.2140 0001692  79.4009 280.7171 15.06392027303861
STARLINK-1267,45384,53.0541,0.0001751,15.06383562,546.0493011447716,548.4745758530344,1 45384U 20019AA  25260.23737110 -.00002021  00000+0 -11683-3 0  9993,2 45384  53.0541 205.9321 0001751  81.9017 278.2171 15.06383562303852
STARLINK-1272,45386,53.0538,0.0001462,15.06385396,546.2438249535107,548.2688099595362,1 45386U 20019AC  25260.24465389  .00000599  00000+0  59154-4 0  9994,2 45386  53.0538 205.2461 0001462  87.4536 272.6620 15.06385396303869
STARLINK-1274,45387,53.0368,0.0008008,15.24361411,487.20149386478624,498.2058322707553,1 45387U 20019AD  25260.20318481  .00047017  00000+0  18957-2 0  9991,2 45387  53.0368 197.0567 0008008  55.3323 304.8427 15.24361411303974
STARLINK-1280,45388,53.053,0.0001276,15.06395467,546.3417747165004,548.1091272139865,1 45388U 20019AE  25259.63830692  .00000417  00000+0  46902-4 0  9996,2 45388  53.0530 227.9676 0001276  88.1451 271.9685 15.06395467303480
STARLINK-1283,45389,53.0547,0.0001267,15.06382749,546.3869819120328,548.1418786344648,1 45389U 20019AF  25260.01611922 -.00001675  00000+0 -93624-4 0  9996,2 45389  53.0547 206.2701 0001267  94.6833 265.4300 15.06382749303834
STARLINK-1284,45390,53.0532,0.0001535,15.06387351,546.187278618283,548.3133725272337,1 45390U 20019AG  25260.25571180 -.00000647  00000+0 -24555-4 0  9990,2 45390  53.0532 205.1946 0001535  88.5935 271.5229 15.06387351303867
STARLINK-1292,45394,53.0501,0.0005157,15.71313346,351.6701375192879,358.61484198501785,1 45394U 20019AL  25260.25009259  .00209183  00000+0  15783-2 0  9992,2 45394  53.0501 179.2947 0005157 123.2092   1.9592 15.71313346  5912
STARLINK-1297,45395,53.0534,0.0001115,15.06388866,546.473502085797,548.0178624239397,1 45395U 20019AM  25260.22621821 -.00003244  00000+0 -19907-3 0  9990,2 45395  53.0534 205.3274 0001115  91.4434 268.6683 15.06388866303044
STARLINK-1307,45397,53.0553,0.0001538,15.06389156,546.1796697159998,548.3099171556605,1 45397U 20019AP  25260.01981079 -.00001533  00000+0 -84076-4 0  9992,2 45397  53.0553 206.2537 0001538 100.4062 259.7100 15.06389156303651
STARLINK-1312,45398,53.0497,0.0011488,15.69088167,353.7642832993206,369.24928886221824,1 45398U 20019AQ  25260.25009259  .00207906  00000+0  17165-2 0  9993,2 45398  53.0497 178.6558 0011488  68.3637 308.1084 15.69088167  5947
STARLINK-1255,45399,53.0528,0.0001401,15.06389588,546.2732235987178,548.2137152062442,1 45399U 20019AR  25260.12025495 -.00002928  00000+0 -17780-3 0  9993,2 45399  53.0528 195.8045 0001401  94.7253 265.3896 15.06389588303797
STARLINK-1259,45403,53.0512,0.0010499,15.81201237,320.0027702915595,334.08230628605816,1 45403U 20019AV  25260.25009259  .00228674  00000+0  11111-2 0  9990,2 45403  53.0512 161.0336 0010499  72.1660 157.7717 15.81201237  5672
STARLINK-1260,45404,53.0527,0.0001498,15.06384514,546.2215963805866,548.2964450283889,1 45404U 20019AW  25260.21977917 -.00001166  00000+0 -59444-4 0  9992,2 45404  53.0527 195.3572 0001498  91.8506 268.2654 15.06384514303718
STARLINK-1263,45405,53.0546,7.64e-05,15.06402356,546.6752410688578,547.733433225173,1 45405U 20019AX  25260.20500977  .00001610  00000+0  12692-3 0  9995,2 45405  53.0546 195.4238 0000764  73.7586 286.3487 15.06402356303712
STARLINK-1265,45406,53.0543,0.0001631,15.0638383,546.1315846697871,548.3906495355859,1 45406U 20019AY  25260.21240585  .00000005  00000+0  19262-4 0  9991,2 45406  53.0543 195.3891 0001631  97.2436 262.8739 15.06383830303717
STARLINK-1278,45408,53.0548,0.0001697,15.06396787,546.0461720166368,548.3966386594093,1 45408U 20019BA  25259.64199667 -.00000483  00000+0 -13538-4 0  9994,2 45408  53.0548 227.9512 0001697  83.5252 276.5930 15.06396787303217
STARLINK-1296,45412,53.0553,0.0001954,15.0638548,545.9028382005481,548.6092818083971,1 45412U 20019BE  25260.21609298 -.00001000  00000+0 -48255-4 0  9990,2 45412  53.0553 195.3732 0001954  93.5057 266.6156 15.06385480303713
